OBJECT_NAME,OBJECT_ID,EPOCH,MEAN_MOTION,ECCENTRICITY,INCLINATION,RA_OF_ASC_NODE,ARG_OF_PERICENTER,MEAN_ANOMALY,EPHEMERIS_TYPE,CLASSIFICATION_TYPE,NORAD_CAT_ID,ELEMENT_SET_NO,REV_AT_EPOCH,BSTAR,MEAN_MOTION_DOT,MEAN_MOTION_DDOT
IRIDIUM 156,2018-061H,2026-06-14T16:12:46.382112,14.34218142,.0002062,86.3961,57.7796,81.2650,278.8779,0,U,43576,999,41301,.65524E-4,.203E-5,0
IRIDIUM 164,2018-061J,2026-06-14T15:45:22.444992,14.34218044,.0002104,86.3963,57.8280,88.7714,271.3723,0,U,43577,999,41305,.26385E-4,.94E-6,0
IRIDIUM 159,2018-061K,2026-06-14T14:59:42.482400,14.34217839,.0002285,86.3961,57.7780,84.0765,276.0691,0,U,43578,999,41301,.33586E-4,.114E-5,0
IRIDIUM 180,2019-002A,2026-06-14T13:18:30.926304,14.34217513,.0002159,86.3967,354.6983,89.1479,270.9964,0,U,43922,999,38861,-.37173E-5,.9E-7,0
IRIDIUM 176,2019-002B,2026-06-14T18:43:19.388928,14.72264110,.0002264,86.6090,354.5479,92.2864,267.8612,0,U,43923,999,39889,.10239E-3,.67E-5,0
IRIDIUM 168,2019-002C,2026-06-14T18:10:46.892352,14.34218112,.0002169,86.3974,354.6909,88.8381,271.3063,0,U,43924,999,38862,.1266E-4,.55E-6,0
IRIDIUM 173,2019-002D,2026-06-14T14:31:34.929696,14.34217763,.0002209,86.3969,354.6432,86.8821,273.2628,0,U,43925,999,38858,.18573E-4,.72E-6,0
IRIDIUM 169,2019-002E,2026-06-14T21:17:46.885344,14.38607997,.0001932,86.4226,26.1550,71.8084,288.3324,0,U,43926,999,38989,.74294E-4,.247E-5,0
IRIDIUM 172,2019-002F,2026-06-14T19:23:50.876736,14.34217656,.0002253,86.3969,354.5664,88.8689,271.2765,0,U,43927,999,38862,.37402E-4,.125E-5,0
IRIDIUM 175,2019-002G,2026-06-14T20:23:44.574144,14.43611553,.0002193,86.4511,291.4981,186.8574,173.2598,0,U,43928,999,39864,.74659E-4,.273E-5,0
IRIDIUM 171,2019-002H,2026-06-14T18:56:26.928384,14.34216653,.0001887,86.3976,354.8803,89.2578,270.8834,0,U,43929,999,38861,-.45979E-4,-.109E-5,0
IRIDIUM 170,2019-002J,2026-06-14T13:58:36.373152,14.72264390,.0002356,86.6090,354.6330,88.6967,271.4520,0,U,43930,999,39887,.10437E-3,.683E-5,0
IRIDIUM 167,2019-002K,2026-06-14T18:47:18.861216,14.34217575,.000175,86.3968,354.5993,89.8169,270.3228,0,U,43931,999,38861,-.49755E-5,.6E-7,0
IRIDIUM 181,2023-068S,2026-06-14T09:39:45.411552,14.43311459,.00022881,86.4501,57.9545,89.3466,270.7997,0,U,56726,999,16203,.75467822E-4,.274E-5,0
IRIDIUM 177,2023-068T,2026-06-14T19:42:41.696352,14.80226389,.0002383,86.1960,329.9153,87.2474,272.9020,0,U,56727,999,16601,.12332E-3,.964E-5,0
IRIDIUM 174,2023-068U,2026-06-14T18:34:27.056064,14.72260913,.0002489,86.6098,354.7002,84.2138,275.9363,0,U,56728,999,16566,.1071E-3,.7E-5,0
IRIDIUM 178,2023-068V,2026-06-14T21:04:23.572704,14.80230178,.0002652,86.6539,26.3253,86.5141,273.6383,0,U,56729,999,16602,.10981E-3,.861E-5,0
IRIDIUM 179,2023-068W,2026-06-14T16:04:34.853376,14.80233113,.0002442,86.6781,35.3848,88.7589,271.3912,0,U,56730,999,16599,.85482E-4,.676E-5,0
