IRIDIUM 156             
1 43576U 18061H   26165.67553683  .00000203  00000+0  65524-4 0  9994
2 43576  86.3961  57.7796 0002062  81.2650 278.8779 14.34218142413010
IRIDIUM 164             
1 43577U 18061J   26165.65650978  .00000094  00000+0  26385-4 0  9998
2 43577  86.3963  57.8280 0002104  88.7714 271.3723 14.34218044413054
IRIDIUM 159             
1 43578U 18061K   26165.62479725  .00000114  00000+0  33586-4 0  9999
2 43578  86.3961  57.7780 0002285  84.0765 276.0691 14.34217839413015
IRIDIUM 180             
1 43922U 19002A   26165.55452461  .00000009  00000+0 -37173-5 0  9999
2 43922  86.3967 354.6983 0002159  89.1479 270.9964 14.34217513388618
IRIDIUM 176             
1 43923U 19002B   26165.78008552  .00000670  00000+0  10239-3 0  9998
2 43923  86.6090 354.5479 0002264  92.2864 267.8612 14.72264110398891
IRIDIUM 168             
1 43924U 19002C   26165.75748718  .00000055  00000+0  12660-4 0  9999
2 43924  86.3974 354.6909 0002169  88.8381 271.3063 14.34218112388627
IRIDIUM 173             
1 43925U 19002D   26165.60526539  .00000072  00000+0  18573-4 0  9997
2 43925  86.3969 354.6432 0002209  86.8821 273.2628 14.34217763388589
IRIDIUM 169             
1 43926U 19002E   26165.88734821  .00000247  00000+0  74294-4 0  9999
2 43926  86.4226  26.1550 0001932  71.8084 288.3324 14.38607997389897
IRIDIUM 172             
1 43927U 19002F   26165.80822774  .00000125  00000+0  37402-4 0  9992
2 43927  86.3969 354.5664 0002253  88.8689 271.2765 14.34217656388626
IRIDIUM 175             
1 43928U 19002G   26165.84982146  .00000273  00000+0  74659-4 0  9996
2 43928  86.4511 291.4981 0002193 186.8574 173.2598 14.43611553398649
IRIDIUM 171             
1 43929U 19002H   26165.78920056 -.00000109  00000+0 -45979-4 0  9995
2 43929  86.3976 354.8803 0001887  89.2578 270.8834 14.34216653388615
IRIDIUM 170             
1 43930U 19002J   26165.58236543  .00000683  00000+0  10437-3 0  9991
2 43930  86.6090 354.6330 0002356  88.6967 271.4520 14.72264390398878
IRIDIUM 167             
1 43931U 19002K   26165.78285719  .00000006  00000+0 -49755-5 0  9990
2 43931  86.3968 354.5993 0001750  89.8169 270.3228 14.34217575388613
IRIDIUM 181             
1 56726U 23068S   26165.40260893  .00000274  00000+0  75468-4 0  9993
2 56726  86.4501  57.9545 0002288  89.3466 270.7997 14.43311459162031
IRIDIUM 177             
1 56727U 23068T   26165.82131593  .00000964  00000+0  12332-3 0  9990
2 56727  86.1960 329.9153 0002383  87.2474 272.9020 14.80226389166018
IRIDIUM 174             
1 56728U 23068U   26165.77392426  .00000700  00000+0  10710-3 0  9995
2 56728  86.6098 354.7002 0002489  84.2138 275.9363 14.72260913165661
IRIDIUM 178             
1 56729U 23068V   26165.87805061  .00000861  00000+0  10981-3 0  9999
2 56729  86.6539  26.3253 0002652  86.5141 273.6383 14.80230178166020
IRIDIUM 179             
1 56730U 23068W   26165.66984784  .00000676  00000+0  85482-4 0  9991
2 56730  86.6781  35.3848 0002442  88.7589 271.3912 14.80233113165998
